DIWATA-2B               
1 43678U 18084H   26015.14943223  .00001641  00000+0  13835-3 0  9995
2 43678  98.1100 204.9763 0006731 306.7547  53.3056 14.99666239393270
STARS-AO                
1 43679U 18084J   26015.01722325  .00003648  00000+0  20033-3 0  9997
2 43679  98.0633 219.6098 0002251   2.3031 357.8209 15.14831521394263
AUTCUBE 2               
1 43681U 18084K   26014.50550901  .00002934  00000+0  19162-3 0  9990
2 43681  98.0788 212.5442 0008704 197.1667 162.9267 15.08679956393745
BEIDOU-3 G1             
1 43683U 18085A   26015.18668387 -.00000262  00000+0  00000+0 0  9996
2 43683   2.6911 101.9159 0001428  39.7532 180.2349  1.00269827 26522
COSMOS 2529 [GLONASS-M] 
1 43687U 18086A   26010.97940299  .00000106  00000+0  00000+0 0  9994
2 43687  64.2940 197.9001 0006819 252.6402 107.3108  2.13101970 55933
METOP-C                 
1 43689U 18087A   26015.18579420  .00000072  00000+0  52830-4 0  9994
2 43689  98.6879  77.4344 0000553 183.5432 176.5742 14.21498340373097
GSAT-29                 
1 43698U 18089A   26015.17614384  .00000000  00000+0  00000+0 0  9992
2 43698   0.0223  50.4863 0002734 229.7387 312.8683  1.00272673 26253
ES'HAIL 2               
1 43700U 18090A   26015.16397705  .00000163  00000+0  00000+0 0  9992
2 43700   0.0144  61.2669 0001779 291.6456 206.5205  1.00273635 26142
BEIDOU-3 M17            
1 43706U 18093A   26008.84261336  .00000081  00000+0  00000+0 0  9997
2 43706  54.1737 187.7010 0006017 306.7094  58.8513  1.86228429 48572
BEIDOU-3 M18            
1 43707U 18093B   26013.52868120  .00000101  00000+0  00000+0 0  9996
2 43707  54.1745 187.5339 0006116 353.4658   6.5280  1.86226757 48651
SHIYAN-6 01 (SY-6 01)   
1 43711U 18094B   26015.00955538  .00003341  00000+0  12532-3 0  9993
2 43711  97.3681  30.7415 0012620 340.5004  19.5751 15.27866225398089
MOHAMMED VI-B           
1 43717U 18095A   26015.14799931 -.00000327  00000+0 -39192-4 0  9993
2 43717  97.9528  89.6879 0001220  95.8868 264.2481 14.77086737385597
HYSIS                   
1 43719U 18096A   26015.20841772  .00000731  00000+0  10695-3 0  9997
2 43719  98.0056  83.0144 0000389  92.0922 268.0333 14.78639954384813
COSMOS 2530 (RODNIK-S *)
1 43751U 18097A   26015.18976315 -.00000056  00000+0 -47496-3 0  9994
2 43751  82.5174 317.2583 0020321  12.0614 348.0949 12.42875387323282
COSMOS 2531 (RODNIK-S *)
1 43752U 18097B   26015.21589500 -.00000040  00000+0 -36332-3 0  9995
2 43752  82.5219 318.2485 0017678  30.5569 329.6537 12.42906532323308
COSMOS 2532 (RODNIK-S *)
1 43753U 18097C   26015.16325759  .00000028  00000+0  13366-3 0  9990
2 43753  82.5164 317.1371 0019048  32.5791 327.6460 12.42902857323266
MINXSS-2                
1 43758U 18099A   26015.18620961  .00015326  00000+0  43143-3 0  9995
2 43758  97.4749  88.0427 0010031  97.4233 262.8151 15.36511208390550
SIRION PATHFINDER-2     
1 43759U 18099B   26015.08791727  .00003499  00000+0  20285-3 0  9994
2 43759  97.4500  67.7744 0010528 107.3414 252.8970 15.12776782389465
STPSAT-5                
1 43762U 18099E   26015.11994950  .00002290  00000+0  13689-3 0  9993
2 43762  97.4337  69.0493 0004384 128.5958 231.5666 15.12038243389722
POLAR SCOUT KODIAK      
1 43764U 18099G   26015.17945470  .00031758  00000+0  59691-3 0  9998
2 43764  97.4399  91.6723 0007310  68.7846 291.4184 15.48498092391063
HAWK-A                  
1 43765U 18099H   26015.12057543  .00003931  00000+0  17078-3 0  9994
2 43765  97.4170  69.4083 0038239 103.1552 257.3955 15.22221968389797
SPAWAR-CAL-O            
1 43766U 18099J   26015.11580809  .00010024  00000+0  35930-3 0  9998
2 43766  97.4579  78.3069 0010313 113.4992 246.7333 15.28881239390084
CORVUS BC4              
1 43767U 18099K   26015.16127743  .00002261  00000+0  13925-3 0  9992
2 43767  97.4310  62.5865 0009012 159.7511 200.4078 15.10939300389288
AISTECHSAT 2            
1 43768U 18099L   26015.07792355  .00003608  00000+0  20503-3 0  9996
2 43768  97.4545  66.4681 0006371 105.8378 254.3556 15.13510826389107
FOX-1CLIFF (AO-95)      
1 43770U 18099N   26015.11841373  .00006720  00000+0  29019-3 0  9998
2 43770  97.4630  76.1653 0009788 159.6211 200.5418 15.22792052389899
RANGE-A                 
1 43773U 18099R   26015.10491484  .00002263  00000+0  13623-3 0  9996
2 43773  97.4208  62.1388 0011441 149.3847 210.8054 15.11755939389355
HIBER-2                 
1 43774U 18099S   26014.77517979  .00364216  00000+0  13193-2 0  9997
2 43774  97.4518  97.6912 0003975 309.7601  50.3320 15.87680534391187
SPAWAR-CAL-R            
1 43776U 18099U   26015.06171075  .00001725  00000+0  12564-3 0  9990
2 43776  97.4624  60.7858 0020836 159.7176 200.4883 15.04876987388964
SPAWAR-CAL-OR           
1 43778U 18099W   26015.11868054  .00004772  00000+0  22343-3 0  9999
2 43778  97.4054  66.0406 0013405 129.1607 231.0821 15.20122963389379
SNUSAT-2                
1 43782U 18099AA  26015.13165565  .00004328  00000+0  20991-3 0  9997
2 43782  97.4311  70.9735 0012360 109.2386 251.0187 15.18967523389778
KAZSTSAT                
1 43783U 18099AB  26015.10259664  .00000893  00000+0  77370-4 0  9996
2 43783  97.4472  53.8366 0007944 185.4089 174.7050 14.99436397388367
SNUGLITE                
1 43784U 18099AC  26015.09687239  .00006706  00000+0  28646-3 0  9998
2 43784  97.4125  71.1099 0004427 104.0171 256.1558 15.23192123389982
ITASAT                  
1 43786U 18099AE  26015.08861372  .00004443  00000+0  22995-3 0  9998
2 43786  97.4282  69.7093 0013705 160.2891 199.8875 15.16656474389685
EAGLET-I                
1 43790U 18099AJ  26015.07479639  .00002507  00000+0  15163-3 0  9991
2 43790  97.4483  68.7548 0012203 148.3070 211.8898 15.11488237389196
ESEO                    
1 43792U 18099AL  26015.09006465  .00000525  00000+0  42507-4 0  9999
2 43792  97.4191  58.9099 0013399 129.8683 230.3724 15.03641843388791
HAWK-B                  
1 43794U 18099AN  26015.09981176  .00003915  00000+0  17895-3 0  9999
2 43794  97.4219  69.1025 0035032 119.0537 241.4215 15.20596755389759
THEA                    
1 43796U 18099AQ  26015.12480191  .00009555  00000+0  34054-3 0  9998
2 43796  97.4670  83.8194 0009463 107.0741 253.1536 15.29088641389255
SKYSAT-C12              
1 43797U 18099AR  26015.05151116  .00008629  00000+0  19413-3 0  9996
2 43797  96.9444  44.8608 0004619  21.1748 338.9691 15.43523829398192
ASTROCAST 0.1           
1 43798U 18099AS  26015.16641168  .00014900  00000+0  38459-3 0  9990
2 43798  97.4582  89.9497 0006823  58.3930 301.7980 15.39230529390819
HAWK-C                  
1 43799U 18099AT  26015.09414177  .00005057  00000+0  19862-3 0  9991
2 43799  97.4147  69.5907 0044688 106.0034 254.6133 15.25218998390552
ICEYE-X2                
1 43800U 18099AU  26015.21420669  .00002156  00000+0  11699-3 0  9998
2 43800  97.4609  71.7989 0012096 111.7694 248.4827 15.15557738389631
SKYSAT-C13              
1 43802U 18099AW  26015.07688225  .00034320  00000+0  30628-3 0  9999
2 43802  96.9539  62.8953 0006447  79.5645 280.6344 15.68328586398740
JY1SAT (JO-97)          
1 43803U 18099AX  26015.16052766  .00008432  00000+0  31045-3 0  9994
2 43803  97.4380  77.8886 0007614  93.8012 266.4098 15.28071953390217
SUOMI-100               
1 43804U 18099AY  26015.14629968  .00006464  00000+0  26710-3 0  9993
2 43804  97.4437  76.3596 0012199  99.6734 260.5882 15.24275899390073
AL-FARABI 2             
1 43805U 18099AZ  26015.15274670  .00044829  00000+0  66668-3 0  9994
2 43805  97.4256  88.5203 0003569  53.9625 306.1959 15.55026607391007
EUCROPIS                
1 43807U 18099BB  26015.14579918  .00003724  00000+0  18598-3 0  9996
2 43807  97.4466  73.3171 0007081 109.0008 251.1994 15.18073450389225
POLAR SCOUT YUKON       
1 43808U 18099BC  26015.11006021  .00010269  00000+0  34466-3 0  9998
2 43808  97.4879  85.8670 0006134 143.5855 216.5804 15.31050499390036
CENTAURI-1              
1 43809U 18099BD  26015.08883527  .00003644  00000+0  20136-3 0  9997
2 43809  97.4473  70.1029 0015815 135.6269 224.6233 15.14416675389317
NEXTSAT-1               
1 43811U 18099BF  26015.13016182  .00001789  00000+0  12117-3 0  9999
2 43811  97.4313  63.1197 0013574 136.9708 223.2584 15.07652245388818
GLOBAL-2                
1 43812U 18099BG  26015.07854588  .00001660  00000+0  11303-3 0  9997
2 43812  97.3780  57.8895 0005190 334.4205  25.6766 15.07579133388835
FALCONSAT-6             
1 43815U 18099BK  26015.14584234  .00002500  00000+0  10006-3 0  9999
2 43815  97.3977  92.8070 0017572 122.5059 265.8698 15.25877224390387
SPACEBEE-7              
1 43816U 18099BL  26015.14550530  .00096518  00000+0  89352-3 0  9994
2 43816  97.4652  97.6723 0002162   4.5499 355.5781 15.67210192390744
EXCITE                  
1 43819U 18099BP  26015.07383645  .00002049  00000+0  14538-3 0  9990
2 43819  97.4194  59.7866 0019284 151.9386 208.2885 15.05671637388709
SEAHAWK-1               
1 43820U 18099BQ  26015.08839106  .00005325  00000+0  25197-3 0  9994
2 43820  97.4213  70.0334 0010070 121.4722 238.7498 15.19739282389254
GEO-KOMPSAT-2A          
1 43823U 18100A   26014.97037093 -.00000325  00000+0  00000+0 0  9990
2 43823   0.0296 156.7004 0000743 255.8217 179.4906  1.00271806 26094
GSAT-11                 
1 43824U 18100B   26015.10227004 -.00000058  00000+0  00000+0 0  9993
2 43824   0.0837 260.9998 0003141 165.0810 159.2832  1.00272168 25941
SAUDISAT 5A             
1 43831U 18102A   26015.16989832  .00003586  00000+0  14160-3 0  9997
2 43831  97.3308  79.7175 0009063 323.4427  36.6192 15.26125415392328
SAUDISAT 5B             
1 43833U 18102C   26015.21844823  .00003410  00000+0  13345-3 0  9995
2 43833  97.3401  82.5633 0009805 325.3896  34.6703 15.26456823392449
SHIELDS 1               
1 43850U 18104B   26015.02663918  .00163721  89011-5  38285-3 0  9996
2 43850  85.0005 239.1996 0004117  48.7232 311.4404 15.96907869395945
